     2.12           N: GPS NAV DATA                         RINEX VERSION / TYPE
       NTMF V2.3.1.8           CNES-NTMF    2019-07-03 00:32PGM / RUN BY / DATE
GPSA   4.6566D-09  1.4901D-08 -5.9605D-08 -1.1921D-07       IONOSPHERIC CORR
GPSB   8.1920D+04  8.1920D+04 -6.5536D+04 -5.2429D+05       IONOSPHERIC CORR
GPUT  4.6566128730D-09 1.065814103D-14 233472 2060          TIME SYSTEM CORR
    18                                                      LEAP SECONDS
                                                            END OF HEADER
 1 19  7  1  0  0  0.0-5.500810220838D-05-1.011812855722D-11 0.000000000000D+00
    6.800000000000D+01-1.195625000000D+02 3.913377293587D-09-1.785852995488D+00
   -6.316229701042D-06 9.013245929964D-03 1.049228012562D-05 5.153657697678D+03
    8.640000000000D+04 1.266598701477D-07 2.679252841589D+00-7.450580596924D-08
    9.764003641601D-01 1.817812500000D+02 7.264984746061D-01-7.568529545349D-09
    2.535819912792D-10 1.000000000000D+00 2.060000000000D+03 0.000000000000D+00
    2.000000000000D+00 0.000000000000D+00 5.587935447693D-09 6.800000000000D+01
    7.920000000000D+04 4.000000000000D+00 0.000000000000D+00 0.000000000000D+00
 2 19  7  1  0  0  0.0-2.497336827219D-04-8.753886504564D-12 0.000000000000D+00
    6.800000000000D+01-1.027812500000D+02 4.490901349782D-09-1.509172612857D+00
   -4.990026354790D-06 1.889946928713D-02 1.021102070808D-05 5.153742675781D+03
    8.640000000000D+04 1.564621925354D-07 2.609830665397D+00 4.656612873077D-07
    9.554582807754D-01 1.766875000000D+02-1.732701645796D+00-7.888185717455D-09
    9.500395729616D-11 1.000000000000D+00 2.060000000000D+03 0.000000000000D+00
    2.000000000000D+00 0.000000000000D+00-2.048909664154D-08 6.800000000000D+01
    7.920000000000D+04 4.000000000000D+00 0.000000000000D+00 0.000000000000D+00
 3 19  7  1  0  0  0.0 1.834006980062D-04-1.705302565824D-12 0.000000000000D+00
    6.800000000000D+01 1.121875000000D+01 4.698409993349D-09-2.761651621944D+00
    5.587935447693D-07 2.298726583831D-03 8.445233106613D-06 5.153755718231D+03
    8.640000000000D+04 7.450580596924D-09-2.562292298308D+00-1.415610313416D-07
    9.632479362629D-01 2.159062500000D+02 6.188453833371D-01-7.927830225950D-09
    5.810956335370D-10 1.000000000000D+00 2.060000000000D+03 0.000000000000D+00
    2.000000000000D+00 0.000000000000D+00 1.862645149231D-09 6.800000000000D+01
    7.920000000000D+04 4.000000000000D+00 0.000000000000D+00 0.000000000000D+00
 4 19  7  1  0  0  0.0 1.687947660685D-04 7.958078640513D-13 0.000000000000D+00
    2.320000000000D+02-2.293750000000D+01 4.966278293997D-09-2.746750010695D+00
   -1.208856701851D-06 4.443307407200D-04 5.794689059258D-06 5.153713573456D+03
    8.640000000000D+04-7.450580596924D-09-1.484524039265D+00 3.539025783539D-08
    9.593517582458D-01 2.663750000000D+02-1.393076496165D+00-8.161054226381D-09
   -4.528760069606D-10 1.000000000000D+00 2.060000000000D+03 0.000000000000D+00
    3.276700000000D+04 6.300000000000D+01-8.847564458847D-09 2.320000000000D+02
    7.920000000000D+04 4.000000000000D+00 0.000000000000D+00 0.000000000000D+00
